CCSDS_OMM_VERS = 2.0
CREATION_DATE  = 
ORIGINATOR     = 

OBJECT_NAME    = STARLINK-36350
OBJECT_ID      = 2026-016M
CENTER_NAME    = EARTH
REF_FRAME      = TEME
TIME_SYSTEM    = UTC
MEAN_ELEMENT_THEORY = SGP/SGP4

EPOCH          = 2026-02-05T12:00:01.999296
MEAN_MOTION    = 15.85131382
ECCENTRICITY   = .0001608
INCLINATION    = 97.2798
RA_OF_ASC_NODE = 95.3028
ARG_OF_PERICENTER = 79.2101
MEAN_ANOMALY   = 145.6960

EPHEMERIS_TYPE = 0
CLASSIFICATION_TYPE = U
NORAD_CAT_ID   = 67572
ELEMENT_SET_NO = 999
REV_AT_EPOCH   = 276
BSTAR          = -.81975E-2
MEAN_MOTION_DOT = -.1674546E-1
MEAN_MOTION_DDOT = 0

CCSDS_OMM_VERS = 2.0
CREATION_DATE  = 
ORIGINATOR     = 

OBJECT_NAME    = STARLINK-36588
OBJECT_ID      = 2026-016N
CENTER_NAME    = EARTH
REF_FRAME      = TEME
TIME_SYSTEM    = UTC
MEAN_ELEMENT_THEORY = SGP/SGP4

EPOCH          = 2026-02-05T12:00:01.999296
MEAN_MOTION    = 15.85431217
ECCENTRICITY   = .0001583
INCLINATION    = 97.2788
RA_OF_ASC_NODE = 95.3052
ARG_OF_PERICENTER = 81.6338
MEAN_ANOMALY   = 150.3632

EPHEMERIS_TYPE = 0
CLASSIFICATION_TYPE = U
NORAD_CAT_ID   = 67573
ELEMENT_SET_NO = 999
REV_AT_EPOCH   = 292
BSTAR          = -.80521E-2
MEAN_MOTION_DOT = -.1669644E-1
MEAN_MOTION_DDOT = 0

CCSDS_OMM_VERS = 2.0
CREATION_DATE  = 
ORIGINATOR     = 

OBJECT_NAME    = STARLINK-36594
OBJECT_ID      = 2026-016P
CENTER_NAME    = EARTH
REF_FRAME      = TEME
TIME_SYSTEM    = UTC
MEAN_ELEMENT_THEORY = SGP/SGP4

EPOCH          = 2026-02-05T12:00:01.999296
MEAN_MOTION    = 15.85599074
ECCENTRICITY   = .0001433
INCLINATION    = 97.2784
RA_OF_ASC_NODE = 95.3063
ARG_OF_PERICENTER = 89.8476
MEAN_ANOMALY   = 146.4385

EPHEMERIS_TYPE = 0
CLASSIFICATION_TYPE = U
NORAD_CAT_ID   = 67574
ELEMENT_SET_NO = 999
REV_AT_EPOCH   = 292
BSTAR          = -.79103E-2
MEAN_MOTION_DOT = -.16556E-1
MEAN_MOTION_DDOT = 0

CCSDS_OMM_VERS = 2.0
CREATION_DATE  = 
ORIGINATOR     = 

OBJECT_NAME    = STARLINK-36400
OBJECT_ID      = 2026-016Q
CENTER_NAME    = EARTH
REF_FRAME      = TEME
TIME_SYSTEM    = UTC
MEAN_ELEMENT_THEORY = SGP/SGP4

EPOCH          = 2026-02-05T12:00:01.999296
MEAN_MOTION    = 15.85794936
ECCENTRICITY   = .0001503
INCLINATION    = 97.2789
RA_OF_ASC_NODE = 95.3093
ARG_OF_PERICENTER = 94.6015
MEAN_ANOMALY   = 146.4236

EPHEMERIS_TYPE = 0
CLASSIFICATION_TYPE = U
NORAD_CAT_ID   = 67575
ELEMENT_SET_NO = 999
REV_AT_EPOCH   = 281
BSTAR          = -.78209E-2
MEAN_MOTION_DOT = -.1653026E-1
MEAN_MOTION_DDOT = 0

CCSDS_OMM_VERS = 2.0
CREATION_DATE  = 
ORIGINATOR     = 

OBJECT_NAME    = STARLINK-36591
OBJECT_ID      = 2026-016R
CENTER_NAME    = EARTH
REF_FRAME      = TEME
TIME_SYSTEM    = UTC
MEAN_ELEMENT_THEORY = SGP/SGP4

EPOCH          = 2026-02-05T12:00:01.999296
MEAN_MOTION    = 15.86001641
ECCENTRICITY   = .0001514
INCLINATION    = 97.2782
RA_OF_ASC_NODE = 95.3105
ARG_OF_PERICENTER = 87.2135
MEAN_ANOMALY   = 158.7117

EPHEMERIS_TYPE = 0
CLASSIFICATION_TYPE = U
NORAD_CAT_ID   = 67576
ELEMENT_SET_NO = 999
REV_AT_EPOCH   = 287
BSTAR          = -.77511E-2
MEAN_MOTION_DOT = -.1654647E-1
MEAN_MOTION_DDOT = 0

CCSDS_OMM_VERS = 2.0
CREATION_DATE  = 
ORIGINATOR     = 

OBJECT_NAME    = STARLINK-36590
OBJECT_ID      = 2026-016S
CENTER_NAME    = EARTH
REF_FRAME      = TEME
TIME_SYSTEM    = UTC
MEAN_ELEMENT_THEORY = SGP/SGP4

EPOCH          = 2026-02-05T12:00:01.999296
MEAN_MOTION    = 15.86185605
ECCENTRICITY   = .0001381
INCLINATION    = 97.2777
RA_OF_ASC_NODE = 95.3123
ARG_OF_PERICENTER = 88.1138
MEAN_ANOMALY   = 162.2901

EPHEMERIS_TYPE = 0
CLASSIFICATION_TYPE = U
NORAD_CAT_ID   = 67577
ELEMENT_SET_NO = 999
REV_AT_EPOCH   = 287
BSTAR          = -.76778E-2
MEAN_MOTION_DOT = -.1653784E-1
MEAN_MOTION_DDOT = 0

CCSDS_OMM_VERS = 2.0
CREATION_DATE  = 
ORIGINATOR     = 

OBJECT_NAME    = STARLINK-36613
OBJECT_ID      = 2026-016T
CENTER_NAME    = EARTH
REF_FRAME      = TEME
TIME_SYSTEM    = UTC
MEAN_ELEMENT_THEORY = SGP/SGP4

EPOCH          = 2026-02-05T12:00:01.999296
MEAN_MOTION    = 15.86413117
ECCENTRICITY   = .0001374
INCLINATION    = 97.2775
RA_OF_ASC_NODE = 95.3144
ARG_OF_PERICENTER = 97.6290
MEAN_ANOMALY   = 158.1113

EPHEMERIS_TYPE = 0
CLASSIFICATION_TYPE = U
NORAD_CAT_ID   = 67578
ELEMENT_SET_NO = 999
REV_AT_EPOCH   = 287
BSTAR          = -.75897E-2
MEAN_MOTION_DOT = -.1653224E-1
MEAN_MOTION_DDOT = 0

CCSDS_OMM_VERS = 2.0
CREATION_DATE  = 
ORIGINATOR     = 

OBJECT_NAME    = STARLINK-36571
OBJECT_ID      = 2026-016U
CENTER_NAME    = EARTH
REF_FRAME      = TEME
TIME_SYSTEM    = UTC
MEAN_ELEMENT_THEORY = SGP/SGP4

EPOCH          = 2026-02-05T06:00:02.999808
MEAN_MOTION    = 15.87624521
ECCENTRICITY   = .0001414
INCLINATION    = 97.2775
RA_OF_ASC_NODE = 95.0521
ARG_OF_PERICENTER = 75.6378
MEAN_ANOMALY   = 199.4917

EPHEMERIS_TYPE = 0
CLASSIFICATION_TYPE = U
NORAD_CAT_ID   = 67579
ELEMENT_SET_NO = 999
REV_AT_EPOCH   = 283
BSTAR          = -.71246715E-2
MEAN_MOTION_DOT = -.1648321E-1
MEAN_MOTION_DDOT = 0

CCSDS_OMM_VERS = 2.0
CREATION_DATE  = 
ORIGINATOR     = 

OBJECT_NAME    = STARLINK-36612
OBJECT_ID      = 2026-016V
CENTER_NAME    = EARTH
REF_FRAME      = TEME
TIME_SYSTEM    = UTC
MEAN_ELEMENT_THEORY = SGP/SGP4

EPOCH          = 2026-02-05T06:00:02.999808
MEAN_MOTION    = 15.87844927
ECCENTRICITY   = .00013987
INCLINATION    = 97.2771
RA_OF_ASC_NODE = 95.0537
ARG_OF_PERICENTER = 72.7754
MEAN_ANOMALY   = 207.1927

EPHEMERIS_TYPE = 0
CLASSIFICATION_TYPE = U
NORAD_CAT_ID   = 67580
ELEMENT_SET_NO = 999
REV_AT_EPOCH   = 283
BSTAR          = -.71096377E-2
MEAN_MOTION_DOT = -.1661082E-1
MEAN_MOTION_DDOT = 0

CCSDS_OMM_VERS = 2.0
CREATION_DATE  = 
ORIGINATOR     = 

OBJECT_NAME    = STARLINK-36632
OBJECT_ID      = 2026-016W
CENTER_NAME    = EARTH
REF_FRAME      = TEME
TIME_SYSTEM    = UTC
MEAN_ELEMENT_THEORY = SGP/SGP4

EPOCH          = 2026-02-05T06:00:02.999808
MEAN_MOTION    = 15.88435550
ECCENTRICITY   = .00013646
INCLINATION    = 97.2767
RA_OF_ASC_NODE = 95.0599
ARG_OF_PERICENTER = 72.6160
MEAN_ANOMALY   = 220.9688

EPHEMERIS_TYPE = 0
CLASSIFICATION_TYPE = U
NORAD_CAT_ID   = 67581
ELEMENT_SET_NO = 999
REV_AT_EPOCH   = 283
BSTAR          = -.67702179E-2
MEAN_MOTION_DOT = -.1633137E-1
MEAN_MOTION_DDOT = 0

CCSDS_OMM_VERS = 2.0
CREATION_DATE  = 
ORIGINATOR     = 

OBJECT_NAME    = STARLINK-36609
OBJECT_ID      = 2026-016X
CENTER_NAME    = EARTH
REF_FRAME      = TEME
TIME_SYSTEM    = UTC
MEAN_ELEMENT_THEORY = SGP/SGP4

EPOCH          = 2026-02-05T06:00:02.999808
MEAN_MOTION    = 15.88639107
ECCENTRICITY   = .00013862
INCLINATION    = 97.2765
RA_OF_ASC_NODE = 95.0617
ARG_OF_PERICENTER = 72.3813
MEAN_ANOMALY   = 225.8390

EPHEMERIS_TYPE = 0
CLASSIFICATION_TYPE = U
NORAD_CAT_ID   = 67582
ELEMENT_SET_NO = 999
REV_AT_EPOCH   = 283
BSTAR          = -.67111249E-2
MEAN_MOTION_DOT = -.1635224E-1
MEAN_MOTION_DDOT = 0

CCSDS_OMM_VERS = 2.0
CREATION_DATE  = 
ORIGINATOR     = 

OBJECT_NAME    = STARLINK-36577
OBJECT_ID      = 2026-016Y
CENTER_NAME    = EARTH
REF_FRAME      = TEME
TIME_SYSTEM    = UTC
MEAN_ELEMENT_THEORY = SGP/SGP4

EPOCH          = 2026-02-05T06:00:02.999808
MEAN_MOTION    = 15.88120062
ECCENTRICITY   = .00012877
INCLINATION    = 97.2763
RA_OF_ASC_NODE = 95.0561
ARG_OF_PERICENTER = 75.7788
MEAN_ANOMALY   = 210.5831

EPHEMERIS_TYPE = 0
CLASSIFICATION_TYPE = U
NORAD_CAT_ID   = 67583
ELEMENT_SET_NO = 999
REV_AT_EPOCH   = 283
BSTAR          = -.69452287E-2
MEAN_MOTION_DOT = -.1647022E-1
MEAN_MOTION_DDOT = 0

