STARLINK-36350          
1 67572U 26016M   26036.50002314 -.01674546  00000+0 -81975-2 0  9990
2 67572  97.2798  95.3028 0001608  79.2101 145.6960 15.85131382  2766
STARLINK-36588          
1 67573U 26016N   26036.50002314 -.01669644  00000+0 -80521-2 0  9990
2 67573  97.2788  95.3052 0001583  81.6338 150.3632 15.85431217  2921
STARLINK-36594          
1 67574U 26016P   26036.50002314 -.01655600  00000+0 -79103-2 0  9992
2 67574  97.2784  95.3063 0001433  89.8476 146.4385 15.85599074  2924
STARLINK-36400          
1 67575U 26016Q   26036.50002314 -.01653026  00000+0 -78209-2 0  9999
2 67575  97.2789  95.3093 0001503  94.6015 146.4236 15.85794936  2811
STARLINK-36591          
1 67576U 26016R   26036.50002314 -.01654647  00000+0 -77511-2 0  9995
2 67576  97.2782  95.3105 0001514  87.2135 158.7117 15.86001641  2877
STARLINK-36590          
1 67577U 26016S   26036.50002314 -.01653784  00000+0 -76778-2 0  9991
2 67577  97.2777  95.3123 0001381  88.1138 162.2901 15.86185605  2871
STARLINK-36613          
1 67578U 26016T   26036.50002314 -.01653224  00000+0 -75897-2 0  9992
2 67578  97.2775  95.3144 0001374  97.6290 158.1113 15.86413117  2870
STARLINK-36571          
1 67579U 26016U   26036.25003472 -.01648321  00000+0 -71247-2 0  9998
2 67579  97.2775  95.0521 0001414  75.6378 199.4917 15.87624521  2835
STARLINK-36612          
1 67580U 26016V   26036.25003472 -.01661082  00000+0 -71096-2 0  9991
2 67580  97.2771  95.0537 0001398  72.7754 207.1927 15.87844927  2839
STARLINK-36632          
1 67581U 26016W   26036.25003472 -.01633137  00000+0 -67702-2 0  9991
2 67581  97.2767  95.0599 0001364  72.6160 220.9688 15.88435550  2832
STARLINK-36609          
1 67582U 26016X   26036.25003472 -.01635224  00000+0 -67111-2 0  9995
2 67582  97.2765  95.0617 0001386  72.3813 225.8390 15.88639107  2836
STARLINK-36577          
1 67583U 26016Y   26036.25003472 -.01647022  00000+0 -69452-2 0  9995
2 67583  97.2763  95.0561 0001287  75.7788 210.5831 15.88120062  2837
